#cP2017 11 21  0  0  0.00000000      96 ORBIT IGS14 HLM  IGS
## 1976 172800.00000000   900.00000000 58078 0.0000000000000
+   32   G01G02G03G04G05G06G07G08G09G10G11G12G13G14G15G16G17
+        G18G19G20G21G22G23G24G25G26G27G28G29G30G31G32  0  0
+          0  0  0  0  0  0  0  0  0  0  0  0  0  0  0  0  0
+          0  0  0  0  0  0  0  0  0  0  0  0  0  0  0  0  0
+          0  0  0  0  0  0  0  0  0  0  0  0  0  0  0  0  0
++         2  2  2  0  2  2  2  2  2  2  2  2  2  2  2  2  2
++         3  2  2  2  2  2  2  2  2  2  2  2  2  2  2  0  0
++         0  0  0  0  0  0  0  0  0  0  0  0  0  0  0  0  0
++         0  0  0  0  0  0  0  0  0  0  0  0  0  0  0  0  0
++         0  0  0  0  0  0  0  0  0  0  0  0  0  0  0  0  0
%c G  cc GPS ccc cccc cccc cccc cccc ccccc ccccc ccccc ccccc
%c cc cc ccc ccc cccc cccc cccc cccc ccccc ccccc ccccc ccccc
%f  1.2500000  1.025000000  0.00000000000  0.000000000000000
%f  0.0000000  0.000000000  0.00000000000  0.000000000000000
%i    0    0    0    0      0      0      0      0         0
%i    0    0    0    0      0      0      0      0         0
/* RAPID ORBIT COMBINATION FROM WEIGHTED AVERAGE OF:        
/* cod emr esa gfz jpl ngs sio usn whu                      
/* REFERENCED TO IGS TIME (IGST) AND TO WEIGHTED MEAN POLE: 
/* PCV:IGS14_1973 OL/AL:FES2004  NONE     Y  ORB:CMB CLK:CMB
*  2017 11 21 16 30  0.00000000
PG01  -7593.077275  19029.746162 -16882.096449    -11.804525  4  5  4  94       
PG02  21849.482568 -14559.628737  -2175.380640    275.103197  4 10  6 115       
PG03   3223.840484  17172.043708 -20036.624134    -38.757235  7  7  6 105       
PG04 -14020.062263   6826.728469  21257.574897 999999.999999
PG05  17476.000762  -6811.683793  18779.885123    -22.044814  5  4  2 112       
PG06  22596.410186  -4409.232033 -13234.185426    410.710829  5  7  5  81       
PG07   8388.022082  12808.197383  21903.411078    276.466023  6  8  4 121       
PG08  -6485.599533  22694.644264  12122.884319    -81.417988  6  8  6 107       
PG09   8487.085986  23418.138329   9177.230467    474.295331  4  5  6 125       
PG10 -24439.769785 -10450.234474  -1709.724602    115.228754  7  6  5 100       
PG11  -6908.445642  24247.589986  -9111.960329   -727.408163  6  6  7  81       
PG12    848.546366 -15811.234275 -21525.420693    363.829648  8  9  5  82       
PG13  12101.499575 -16842.973786  16486.836240    -94.155496  5  6  3 120       
PG14 -15061.656648   -359.836510 -21597.117716    -89.036414  3  7  6  87       
PG15   3928.103396 -24018.887018   9963.201085   -357.239087  6  9  5 115       
PG16 -16989.508744   5113.883774  19767.181260     36.202740  6  9  6 104       
PG17  13488.535384  10857.943043 -19810.550434   -143.066262  6  6  5  96       
PG18 -19388.161589 -15966.742403   9491.910547    632.908715  9  8  8 109       
PG19  14899.381286   1407.457774 -22216.222317   -474.348251  6  9  5  95       
PG20    263.704091 -16443.020003  20709.864840    493.415763  6  9  4 119       
PG21 -11226.162081 -11532.324962  21926.220601   -460.008489  4  7  5 115       
PG22  -5227.791382  15035.232860 -21024.114861   -196.689144  4  6  3  97       
PG23   1514.662544  26255.555422   -914.407546   -218.754929  5  7  7 118       
PG24   9704.924378 -20030.759980 -14382.182543    -42.487848  8  8  6 115       
PG25 -12539.155919 -17821.637228 -15496.488978   -493.272652  8  5  8  97       
PG26 -23608.163493  -1551.984711  12183.091583   -353.954330  6  5  6  94       
PG27 -12506.626827  12276.888801  19826.985504    349.725125  2  5  7 107       
PG28  22049.415929  14711.055265   2096.844029    664.465927  8  7  5 101       
PG29  -3713.051085 -25807.359630   5091.260311    535.325060  6  9  5  95       
PG30  17351.690995   5821.282335  19303.836018    126.382487  6  6  6 120       
PG31 -23522.399358   5536.044447 -11417.502511    160.617085  5  5  6  84       
PG32 -15028.783414  -7918.560523 -20408.659151   -525.067955  4  2  6  98       
*  2017 11 21 16 45  0.00000000
PG01  -9158.163084  19943.446420 -14895.453838    -11.806727  4  5  4  60       
PG02  21680.678121 -14017.463876  -4984.030403    275.094306  3 10  6 109       
PG03   1051.500556  16293.115826 -20977.141572    -38.752135  7  7  6 111       
PG04 -14563.672624   4391.553178  21578.277575 999999.999999
PG05  19329.201695  -5860.766986  17248.351479    -22.044234  4  5  2 105       
PG06  21376.077453  -3300.249287 -15402.663730    410.712182  5  7  5  64       
PG07   6355.652917  14183.784666  21698.344604    276.461050  6  8  4 100       
PG08  -6850.132805  21214.258349  14408.763605    -81.419223  7  7  6 106       
PG09   8333.969479  24345.915419   6530.550968    474.299497  5  5  7 105       
PG10 -24372.046757 -10690.596992   1136.059269    115.235468  7  6  6  83       
PG11  -7650.691555  24782.054520  -6580.238704   -727.409655  6  7  7  58       
PG12   3033.854840 -14702.429227 -22093.978649    363.828156  8  9  5 108       
PG13  12217.291180 -14837.280078  18223.081722    -94.155794  4  5  3 105       
PG14 -15117.251567  -2877.324928 -21385.938136    -89.037153  3  7  7  95       
PG15   4486.444234 -22777.211954  12350.306791   -357.239375  5  8  5 111       
PG16 -18872.892433   4004.381059  18304.855847     36.202348  5  8  6 123       
PG17  13517.639838  13110.370315 -18418.322351   -143.064126  6  6  6 107       
PG18 -18215.558518 -15817.410659  11894.864013    632.908931  8  7  9  87       
PG19  14891.215755   3868.123544 -21904.845035   -474.346133  6  9  5  77       
PG20   2593.132873 -15730.411161  21093.229605    493.417213  6  9  4 110       
PG21  -9387.011371 -12997.341327  21967.319948   -460.005277  4  7  6 106       
PG22  -7525.437149  14141.849386 -20950.480923   -196.700651  4  6  2 114       
PG23   1146.214348  25997.846793  -3744.660619   -218.755356  6  7  7 120       
PG24  11055.313554 -20768.025723 -12152.077304    -42.488029  7  7  6 101       
PG25 -10804.802837 -17179.307176 -17408.755591   -493.278249  8  6  8 102       
PG26 -24670.718046  -2247.319106   9729.956660   -353.941717  6  4  6 108       
PG27 -12848.457013   9956.584909  20897.742882    349.728250  3  5  7 116       
PG28  21674.259467  14703.776231   4968.881013    664.468939  7  7  5  88       
PG29  -3543.632803 -26234.647705   2233.000438    535.320394  5  9  5  62       
PG30  15501.589353   7141.913999  20391.266367    126.380147  6  7  6 100       
PG31 -22434.149008   4586.776129 -13739.564517    160.614791  5  6  7  66       
PG32 -15178.917667 -10189.912721 -19264.518891   -525.070452  4  2  7  91       
*  2017 11 21 17  0  0.00000000
PG01 -10488.600624  20788.182935 -12651.417816    -11.808901  4  6  5  93       
PG02  21306.097767 -13250.978651  -7704.229545    275.085483  3 10  6  80       
PG03  -1244.411419  15497.948750 -21557.597420    -38.747079  7  7  5 102       
PG04 -15233.175312   1977.930151  21520.954330 999999.999999
PG05  21047.106829  -5068.785134  15420.005088    -22.043559  4  5  3  92       
PG06  20038.729150  -1980.460946 -17305.864682    410.713497  5  7  5  91       
PG07   4428.859254  15639.788176  21125.361764    276.456484  7  8  4  94       
PG08  -7334.890483  19514.749585  16446.230147    -81.419949  7  6  6 109       
PG09   8175.472833  24978.824624   3771.323107    474.303758  5  5  7 104       
PG10 -24017.267925 -10822.092148   3962.462025    115.242178  7  6  6  86       
PG11  -8241.302382  25093.055321  -3937.787210   -727.411084  6  7  8  74       
PG12   5319.467592 -13701.714883 -22288.788376    363.826838  8  9  5  84       
PG13  12448.260079 -12660.421577  19643.087825    -94.155874  4  5  3 103       
PG14 -15298.460901  -5340.867657 -20797.800779    -89.037846  3  6  7 110       
PG15   5162.451773 -21310.235683  14518.398320   -357.239093  5  8  4 116       
PG16 -20647.025270   3083.746824  16528.751053     36.202175  5  8  6 114       
PG17  13650.010391  15177.062457 -16701.176972   -143.061632  6  5  6  97       
PG18 -16797.835715 -15643.938568  14100.723578    632.909381  8  7  9  85       
PG19  15016.251366   6272.623476 -21225.256007   -474.344467  6  9  6  86       
PG20   4975.355274 -15120.449889  21108.704774    493.418174  5  9  4  96       
PG21  -7635.632929 -14545.637812  21656.252871   -460.001930  4  6  6  92       
PG22  -9832.941964  13363.129912 -20508.654638   -196.711688  5  5  3 104       
PG23    708.946094  25443.061554  -6508.446106   -218.755515  6  7  7 122       
PG24  12171.322700 -21395.638019  -9710.955123    -42.489353  7  7  6  96       
PG25  -8851.744149 -16563.106703 -19027.374377   -493.283852  9  6  7 112       
PG26 -25498.252164  -2789.611116   7110.392894   -353.929133  5  4  6  97       
PG27 -13332.080596   7560.169044  21605.453275    349.731315  3  5  6 105       
PG28  21014.110373  14577.220945   7756.394925    664.472112  7  8  5  84       
PG29  -3363.837162 -26345.996519   -663.667190    535.316053  5  9  5  70       
PG30  13635.664339   8614.885061  21129.053322    126.377837  6  7  6 101       
PG31 -21200.680471   3426.903150 -15828.943378    160.612675  5  6  7  91       
PG32 -15420.997533 -12303.738525 -17788.816536   -525.073026  4  2  7 108       
EOF
